CCSDS_OMM_VERS = 2.0
CREATION_DATE  = 
ORIGINATOR     = 

OBJECT_NAME    = STARLINK-36930
OBJECT_ID      = 2026-040D
CENTER_NAME    = EARTH
REF_FRAME      = TEME
TIME_SYSTEM    = UTC
MEAN_ELEMENT_THEORY = SGP/SGP4

EPOCH          = 2026-03-19T20:00:01.999872
MEAN_MOTION    = 15.79272602
ECCENTRICITY   = .00013872
INCLINATION    = 97.2784
RA_OF_ASC_NODE = 27.7721
ARG_OF_PERICENTER = 95.1596
MEAN_ANOMALY   = 194.6904

EPHEMERIS_TYPE = 0
CLASSIFICATION_TYPE = U
NORAD_CAT_ID   = 68018
ELEMENT_SET_NO = 999
REV_AT_EPOCH   = 405
BSTAR          = -.12162037E-1
MEAN_MOTION_DOT = -.1897229E-1
MEAN_MOTION_DDOT = 0

CCSDS_OMM_VERS = 2.0
CREATION_DATE  = 
ORIGINATOR     = 

OBJECT_NAME    = STARLINK-36921
OBJECT_ID      = 2026-040E
CENTER_NAME    = EARTH
REF_FRAME      = TEME
TIME_SYSTEM    = UTC
MEAN_ELEMENT_THEORY = SGP/SGP4

EPOCH          = 2026-03-19T20:00:01.999872
MEAN_MOTION    = 15.80304730
ECCENTRICITY   = .00012049
INCLINATION    = 97.2808
RA_OF_ASC_NODE = 27.7812
ARG_OF_PERICENTER = 91.6337
MEAN_ANOMALY   = 216.1883

EPHEMERIS_TYPE = 0
CLASSIFICATION_TYPE = U
NORAD_CAT_ID   = 68019
ELEMENT_SET_NO = 999
REV_AT_EPOCH   = 405
BSTAR          = -.11590121E-1
MEAN_MOTION_DOT = -.189561E-1
MEAN_MOTION_DDOT = 0

CCSDS_OMM_VERS = 2.0
CREATION_DATE  = 
ORIGINATOR     = 

OBJECT_NAME    = STARLINK-36928
OBJECT_ID      = 2026-040F
CENTER_NAME    = EARTH
REF_FRAME      = TEME
TIME_SYSTEM    = UTC
MEAN_ELEMENT_THEORY = SGP/SGP4

EPOCH          = 2026-03-19T20:00:01.999872
MEAN_MOTION    = 15.79946801
ECCENTRICITY   = .0001303
INCLINATION    = 97.2805
RA_OF_ASC_NODE = 27.7776
ARG_OF_PERICENTER = 90.1396
MEAN_ANOMALY   = 213.2094

EPHEMERIS_TYPE = 0
CLASSIFICATION_TYPE = U
NORAD_CAT_ID   = 68020
ELEMENT_SET_NO = 999
REV_AT_EPOCH   = 405
BSTAR          = -.11908614E-1
MEAN_MOTION_DOT = -.1913363E-1
MEAN_MOTION_DDOT = 0

CCSDS_OMM_VERS = 2.0
CREATION_DATE  = 
ORIGINATOR     = 

OBJECT_NAME    = STARLINK-36858
OBJECT_ID      = 2026-040G
CENTER_NAME    = EARTH
REF_FRAME      = TEME
TIME_SYSTEM    = UTC
MEAN_ELEMENT_THEORY = SGP/SGP4

EPOCH          = 2026-03-20T03:54:21.096288
MEAN_MOTION    = 15.84584301
ECCENTRICITY   = .0000722
INCLINATION    = 97.2785
RA_OF_ASC_NODE = 28.2757
ARG_OF_PERICENTER = 132.3403
MEAN_ANOMALY   = 227.7929

EPHEMERIS_TYPE = 0
CLASSIFICATION_TYPE = U
NORAD_CAT_ID   = 68021
ELEMENT_SET_NO = 999
REV_AT_EPOCH   = 301
BSTAR          = -.39861E-2
MEAN_MOTION_DOT = -.829337E-2
MEAN_MOTION_DDOT = 0

CCSDS_OMM_VERS = 2.0
CREATION_DATE  = 
ORIGINATOR     = 

OBJECT_NAME    = STARLINK-36916
OBJECT_ID      = 2026-040H
CENTER_NAME    = EARTH
REF_FRAME      = TEME
TIME_SYSTEM    = UTC
MEAN_ELEMENT_THEORY = SGP/SGP4

EPOCH          = 2026-03-19T20:00:01.999872
MEAN_MOTION    = 15.79773807
ECCENTRICITY   = .00011325
INCLINATION    = 97.2783
RA_OF_ASC_NODE = 27.7833
ARG_OF_PERICENTER = 102.5171
MEAN_ANOMALY   = 213.5137

EPHEMERIS_TYPE = 0
CLASSIFICATION_TYPE = U
NORAD_CAT_ID   = 68022
ELEMENT_SET_NO = 999
REV_AT_EPOCH   = 405
BSTAR          = -.12003223E-1
MEAN_MOTION_DOT = -.1913167E-1
MEAN_MOTION_DDOT = 0

CCSDS_OMM_VERS = 2.0
CREATION_DATE  = 
ORIGINATOR     = 

OBJECT_NAME    = STARLINK-36871
OBJECT_ID      = 2026-040J
CENTER_NAME    = EARTH
REF_FRAME      = TEME
TIME_SYSTEM    = UTC
MEAN_ELEMENT_THEORY = SGP/SGP4

EPOCH          = 2026-03-19T20:00:01.999872
MEAN_MOTION    = 15.79286217
ECCENTRICITY   = .00011328
INCLINATION    = 97.2780
RA_OF_ASC_NODE = 27.7842
ARG_OF_PERICENTER = 88.5444
MEAN_ANOMALY   = 231.2450

EPHEMERIS_TYPE = 0
CLASSIFICATION_TYPE = U
NORAD_CAT_ID   = 68023
ELEMENT_SET_NO = 999
REV_AT_EPOCH   = 405
BSTAR          = -.12127551E-1
MEAN_MOTION_DOT = -.189333E-1
MEAN_MOTION_DDOT = 0

CCSDS_OMM_VERS = 2.0
CREATION_DATE  = 
ORIGINATOR     = 

OBJECT_NAME    = STARLINK-36891
OBJECT_ID      = 2026-040K
CENTER_NAME    = EARTH
REF_FRAME      = TEME
TIME_SYSTEM    = UTC
MEAN_ELEMENT_THEORY = SGP/SGP4

EPOCH          = 2026-03-19T20:00:01.999872
MEAN_MOTION    = 15.79236799
ECCENTRICITY   = .00013019
INCLINATION    = 97.2782
RA_OF_ASC_NODE = 27.7864
ARG_OF_PERICENTER = 89.6828
MEAN_ANOMALY   = 234.2970

EPHEMERIS_TYPE = 0
CLASSIFICATION_TYPE = U
NORAD_CAT_ID   = 68024
ELEMENT_SET_NO = 999
REV_AT_EPOCH   = 405
BSTAR          = -.12188633E-1
MEAN_MOTION_DOT = -.1898061E-1
MEAN_MOTION_DDOT = 0

CCSDS_OMM_VERS = 2.0
CREATION_DATE  = 
ORIGINATOR     = 

OBJECT_NAME    = STARLINK-36378
OBJECT_ID      = 2026-040L
CENTER_NAME    = EARTH
REF_FRAME      = TEME
TIME_SYSTEM    = UTC
MEAN_ELEMENT_THEORY = SGP/SGP4

EPOCH          = 2026-03-19T20:00:01.999872
MEAN_MOTION    = 15.79112469
ECCENTRICITY   = .00012814
INCLINATION    = 97.2804
RA_OF_ASC_NODE = 27.7929
ARG_OF_PERICENTER = 88.3548
MEAN_ANOMALY   = 244.0233

EPHEMERIS_TYPE = 0
CLASSIFICATION_TYPE = U
NORAD_CAT_ID   = 68025
ELEMENT_SET_NO = 999
REV_AT_EPOCH   = 400
BSTAR          = -.12202873E-1
MEAN_MOTION_DOT = -.1890631E-1
MEAN_MOTION_DDOT = 0

CCSDS_OMM_VERS = 2.0
CREATION_DATE  = 
ORIGINATOR     = 

OBJECT_NAME    = STARLINK-36884
OBJECT_ID      = 2026-040M
CENTER_NAME    = EARTH
REF_FRAME      = TEME
TIME_SYSTEM    = UTC
MEAN_ELEMENT_THEORY = SGP/SGP4

EPOCH          = 2026-03-19T20:00:01.999872
MEAN_MOTION    = 15.79587106
ECCENTRICITY   = .00011004
INCLINATION    = 97.2790
RA_OF_ASC_NODE = 27.7888
ARG_OF_PERICENTER = 68.3985
MEAN_ANOMALY   = 260.2978

EPHEMERIS_TYPE = 0
CLASSIFICATION_TYPE = U
NORAD_CAT_ID   = 68026
ELEMENT_SET_NO = 999
REV_AT_EPOCH   = 405
BSTAR          = -.11988475E-1
MEAN_MOTION_DOT = -.1896938E-1
MEAN_MOTION_DDOT = 0

CCSDS_OMM_VERS = 2.0
CREATION_DATE  = 
ORIGINATOR     = 

OBJECT_NAME    = STARLINK-36940
OBJECT_ID      = 2026-040N
CENTER_NAME    = EARTH
REF_FRAME      = TEME
TIME_SYSTEM    = UTC
MEAN_ELEMENT_THEORY = SGP/SGP4

EPOCH          = 2026-03-19T20:00:01.999872
MEAN_MOTION    = 15.78438484
ECCENTRICITY   = .00015377
INCLINATION    = 97.2853
RA_OF_ASC_NODE = 27.8198
ARG_OF_PERICENTER = 88.8807
MEAN_ANOMALY   = 293.5835

EPHEMERIS_TYPE = 0
CLASSIFICATION_TYPE = U
NORAD_CAT_ID   = 68027
ELEMENT_SET_NO = 999
REV_AT_EPOCH   = 415
BSTAR          = -.12661218E-1
MEAN_MOTION_DOT = -.1901267E-1
MEAN_MOTION_DDOT = 0

CCSDS_OMM_VERS = 2.0
CREATION_DATE  = 
ORIGINATOR     = 

OBJECT_NAME    = STARLINK-36253
OBJECT_ID      = 2026-040P
CENTER_NAME    = EARTH
REF_FRAME      = TEME
TIME_SYSTEM    = UTC
MEAN_ELEMENT_THEORY = SGP/SGP4

EPOCH          = 2026-03-19T20:00:01.999872
MEAN_MOTION    = 15.69851487
ECCENTRICITY   = .00019144
INCLINATION    = 97.2848
RA_OF_ASC_NODE = 27.5571
ARG_OF_PERICENTER = 84.6575
MEAN_ANOMALY   = 52.4353

EPHEMERIS_TYPE = 0
CLASSIFICATION_TYPE = U
NORAD_CAT_ID   = 68028
ELEMENT_SET_NO = 999
REV_AT_EPOCH   = 415
BSTAR          = -.18293567E-1
MEAN_MOTION_DOT = -.1931593E-1
MEAN_MOTION_DDOT = 0

CCSDS_OMM_VERS = 2.0
CREATION_DATE  = 
ORIGINATOR     = 

OBJECT_NAME    = STARLINK-36944
OBJECT_ID      = 2026-040Q
CENTER_NAME    = EARTH
REF_FRAME      = TEME
TIME_SYSTEM    = UTC
MEAN_ELEMENT_THEORY = SGP/SGP4

EPOCH          = 2026-03-19T20:00:01.999872
MEAN_MOTION    = 15.79023198
ECCENTRICITY   = .00013123
INCLINATION    = 97.2790
RA_OF_ASC_NODE = 27.7914
ARG_OF_PERICENTER = 69.2275
MEAN_ANOMALY   = 267.3602

EPHEMERIS_TYPE = 0
CLASSIFICATION_TYPE = U
NORAD_CAT_ID   = 68029
ELEMENT_SET_NO = 999
REV_AT_EPOCH   = 405
BSTAR          = -.11985426E-1
MEAN_MOTION_DOT = -.1854647E-1
MEAN_MOTION_DDOT = 0

