STARLINK-36930          
1 68018U 26040D   26078.83335648 -.01897229  00000+0 -12162-1 0  9990
2 68018  97.2784  27.7721 0001387  95.1596 194.6904 15.79272602  4055
STARLINK-36921          
1 68019U 26040E   26078.83335648 -.01895610  00000+0 -11590-1 0  9997
2 68019  97.2808  27.7812 0001204  91.6337 216.1883 15.80304730  4052
STARLINK-36928          
1 68020U 26040F   26078.83335648 -.01913363  00000+0 -11909-1 0  9999
2 68020  97.2805  27.7776 0001303  90.1396 213.2094 15.79946801  4050
STARLINK-36858          
1 68021U 26040G   26079.16274417 -.00829337  00000+0 -39861-2 0  9997
2 68021  97.2785  28.2757 0000722 132.3403 227.7929 15.84584301  3016
STARLINK-36916          
1 68022U 26040H   26078.83335648 -.01913167  00000+0 -12003-1 0  9999
2 68022  97.2783  27.7833 0001132 102.5171 213.5137 15.79773807  4055
STARLINK-36871          
1 68023U 26040J   26078.83335648 -.01893330  00000+0 -12128-1 0  9997
2 68023  97.2780  27.7842 0001132  88.5444 231.2450 15.79286217  4058
STARLINK-36891          
1 68024U 26040K   26078.83335648 -.01898061  00000+0 -12189-1 0  9991
2 68024  97.2782  27.7864 0001301  89.6828 234.2970 15.79236799  4051
STARLINK-36378          
1 68025U 26040L   26078.83335648 -.01890631  00000+0 -12203-1 0  9994
2 68025  97.2804  27.7929 0001281  88.3548 244.0233 15.79112469  4004
STARLINK-36884          
1 68026U 26040M   26078.83335648 -.01896938  00000+0 -11988-1 0  9990
2 68026  97.2790  27.7888 0001100  68.3985 260.2978 15.79587106  4051
STARLINK-36940          
1 68027U 26040N   26078.83335648 -.01901267  00000+0 -12661-1 0  9992
2 68027  97.2853  27.8198 0001537  88.8807 293.5835 15.78438484  4156
STARLINK-36253          
1 68028U 26040P   26078.83335648 -.01931593  00000+0 -18294-1 0  9996
2 68028  97.2848  27.5571 0001914  84.6575  52.4353 15.69851487  4157
STARLINK-36944          
1 68029U 26040Q   26078.83335648 -.01854647  00000+0 -11985-1 0  9991
2 68029  97.2790  27.7914 0001312  69.2275 267.3602 15.79023198  4059
